[{"OBJECT_NAME":"XINGYUN-2 01","OBJECT_ID":"2020-028A","EPOCH":"2026-03-09T23:27:57.512736","MEAN_MOTION":15.11323975,"ECCENTRICITY":0.00090563,"INCLINATION":97.4853,"RA_OF_ASC_NODE":63.3977,"ARG_OF_PERICENTER":174.572,"MEAN_ANOMALY":185.561,"EPHEMERIS_TYPE":0,"CLASSIFICATION_TYPE":"U","NORAD_CAT_ID":45602,"ELEMENT_SET_NO":999,"REV_AT_EPOCH":31985,"BSTAR":0.000253969,"MEAN_MOTION_DOT":4.22e-5,"MEAN_MOTION_DDOT":0},{"OBJECT_NAME":"STARLINK-4745","OBJECT_ID":"2022-114AC","EPOCH":"2026-03-09T21:24:09.584640","MEAN_MOTION":15.08846382,"ECCENTRICITY":0.00011581,"INCLINATION":53.2173,"RA_OF_ASC_NODE":293.109,"ARG_OF_PERICENTER":85.7889,"MEAN_ANOMALY":274.3236,"EPHEMERIS_TYPE":0,"CLASSIFICATION_TYPE":"U","NORAD_CAT_ID":53844,"ELEMENT_SET_NO":999,"REV_AT_EPOCH":19300,"BSTAR":-0.00012344278,"MEAN_MOTION_DOT":-2.252e-5,"MEAN_MOTION_DDOT":0}]
